{
  "type": "FeatureCollection",
  "features": [
    {
      "type": "Feature",
      "properties": {
        "norad_id": 41825,
        "name": "FENGYUN 1C DEB",
        "group": "fengyun-1c-debris",
        "lat": 25.369796356034325,
        "lon": 64.59072277439562,
        "alt_km": 844.4475664983611,
        "timestamp": "2025-12-25T19:00:39.641420+00:00",
        "meta_object_name": "FENGYUN 1C DEB",
        "meta_object_id": "1999-025EYC",
        "meta_epoch": "2025-12-25T03:43:29.620416",
        "meta_mean_motion": 14.25180485,
        "meta_eccentricity": 0.00563177,
        "meta_inclination": 98.7406,
        "meta_ra_of_asc_node": 68.1399,
        "meta_arg_of_pericenter": 185.371,
        "meta_mean_anomaly": 174.6872,
        "meta_ephemeris_type": 0,
        "meta_classification_type": "U",
        "meta_norad_cat_id": 41825,
        "meta_element_set_no": 999,
        "meta_rev_at_epoch": 47525,
        "meta_bstar": 0.0016517064,
        "meta_mean_motion_dot": 3.901e-05,
        "meta_mean_motion_ddot": 0,
        "tle_line1": "1 41825U 99025EYC 25359.15520394  .00003901  00000+0  16517-2 0  9992",
        "tle_line2": "2 41825  98.7406  68.1399 0056317 185.3710 174.6872 14.25180485475255"
      },
      "geometry": {
        "type": "Point",
        "coordinates": [
          64.59072277439562,
          25.369796356034325
        ]
      }
    },
    {
      "type": "Feature",
      "properties": {
        "norad_id": 41826,
        "name": "FENGYUN 1C DEB",
        "group": "fengyun-1c-debris",
        "lat": -63.56144016276158,
        "lon": 83.5037188246292,
        "alt_km": 832.6650694870732,
        "timestamp": "2025-12-25T19:00:39.641430+00:00",
        "meta_object_name": "FENGYUN 1C DEB",
        "meta_object_id": "1999-025EYD",
        "meta_epoch": "2025-12-17T15:40:24.664800",
        "meta_mean_motion": 14.23780201,
        "meta_eccentricity": 0.00560806,
        "meta_inclination": 98.7338,
        "meta_ra_of_asc_node": 57.4138,
        "meta_arg_of_pericenter": 209.4871,
        "meta_mean_anomaly": 150.3141,
        "meta_ephemeris_type": 0,
        "meta_classification_type": "U",
        "meta_norad_cat_id": 41826,
        "meta_element_set_no": 999,
        "meta_rev_at_epoch": 47430,
        "meta_bstar": 0.0011247822,
        "meta_mean_motion_dot": 2.57e-05,
        "meta_mean_motion_ddot": 0,
        "tle_line1": "1 41826U 99025EYD 25351.65306325  .00002570  00000+0  11248-2 0  9993",
        "tle_line2": "2 41826  98.7338  57.4138 0056080 209.4871 150.3141 14.23780201474300"
      },
      "geometry": {
        "type": "Point",
        "coordinates": [
          83.5037188246292,
          -63.56144016276158
        ]
      }
    },
    {
      "type": "Feature",
      "properties": {
        "norad_id": 41827,
        "name": "FENGYUN 1C DEB",
        "group": "fengyun-1c-debris",
        "lat": -78.42468862269907,
        "lon": -159.74344682409057,
        "alt_km": 811.0517834510047,
        "timestamp": "2025-12-25T19:00:39.641441+00:00",
        "meta_object_name": "FENGYUN 1C DEB",
        "meta_object_id": "1999-025EYE",
        "meta_epoch": "2025-12-24T03:02:16.250208",
        "meta_mean_motion": 14.25355826,
        "meta_eccentricity": 0.00586907,
        "meta_inclination": 98.742,
        "meta_ra_of_asc_node": 67.2949,
        "meta_arg_of_pericenter": 181.6503,
        "meta_mean_anomaly": 178.4491,
        "meta_ephemeris_type": 0,
        "meta_classification_type": "U",
        "meta_norad_cat_id": 41827,
        "meta_element_set_no": 999,
        "meta_rev_at_epoch": 47493,
        "meta_bstar": 0.0017029665,
        "meta_mean_motion_dot": 4.044e-05,
        "meta_mean_motion_ddot": 0,
        "tle_line1": "1 41827U 99025EYE 25358.12657697  .00004044  00000+0  17030-2 0  9997",
        "tle_line2": "2 41827  98.7420  67.2949 0058690 181.6503 178.4491 14.25355826474935"
      },
      "geometry": {
        "type": "Point",
        "coordinates": [
          -159.74344682409057,
          -78.42468862269907
        ]
      }
    },
    {
      "type": "Feature",
      "properties": {
        "norad_id": 41828,
        "name": "FENGYUN 1C DEB",
        "group": "fengyun-1c-debris",
        "lat": -34.768964707226594,
        "lon": 134.9082196916282,
        "alt_km": 751.2092267999706,
        "timestamp": "2025-12-25T19:00:39.641451+00:00",
        "meta_object_name": "FENGYUN 1C DEB",
        "meta_object_id": "1999-025EYF",
        "meta_epoch": "2025-12-23T07:38:21.156288",
        "meta_mean_motion": 14.52047113,
        "meta_eccentricity": 0.00373451,
        "meta_inclination": 98.9241,
        "meta_ra_of_asc_node": 126.0186,
        "meta_arg_of_pericenter": 145.7037,
        "meta_mean_anomaly": 214.6578,
        "meta_ephemeris_type": 0,
        "meta_classification_type": "U",
        "meta_norad_cat_id": 41828,
        "meta_element_set_no": 999,
        "meta_rev_at_epoch": 47617,
        "meta_bstar": 0.0043737827,
        "meta_mean_motion_dot": 0.00017841,
        "meta_mean_motion_ddot": 0,
        "tle_line1": "1 41828U 99025EYF 25357.31830042  .00017841  00000+0  43738-2 0  9998",
        "tle_line2": "2 41828  98.9241 126.0186 0037345 145.7037 214.6578 14.52047113476177"
      },
      "geometry": {
        "type": "Point",
        "coordinates": [
          134.9082196916282,
          -34.768964707226594
        ]
      }
    },
    {
      "type": "Feature",
      "properties": {
        "norad_id": 41829,
        "name": "FENGYUN 1C DEB",
        "group": "fengyun-1c-debris",
        "lat": 40.108018807136986,
        "lon": 61.51244185061922,
        "alt_km": 836.4155297829257,
        "timestamp": "2025-12-25T19:00:39.641462+00:00",
        "meta_object_name": "FENGYUN 1C DEB",
        "meta_object_id": "1999-025EYG",
        "meta_epoch": "2025-12-25T03:39:15.759072",
        "meta_mean_motion": 14.25203184,
        "meta_eccentricity": 0.0056952,
        "meta_inclination": 98.7427,
        "meta_ra_of_asc_node": 68.3225,
        "meta_arg_of_pericenter": 183.7772,
        "meta_mean_anomaly": 176.2985,
        "meta_ephemeris_type": 0,
        "meta_classification_type": "U",
        "meta_norad_cat_id": 41829,
        "meta_element_set_no": 999,
        "meta_rev_at_epoch": 47484,
        "meta_bstar": 0.0015056,
        "meta_mean_motion_dot": 3.555e-05,
        "meta_mean_motion_ddot": 0,
        "tle_line1": "1 41829U 99025EYG 25359.15226573  .00003555  00000+0  15056-2 0  9990",
        "tle_line2": "2 41829  98.7427  68.3225 0056952 183.7772 176.2985 14.25203184474846"
      },
      "geometry": {
        "type": "Point",
        "coordinates": [
          61.51244185061922,
          40.108018807136986
        ]
      }
    },
    {
      "type": "Feature",
      "properties": {
        "norad_id": 41830,
        "name": "FENGYUN 1C DEB",
        "group": "fengyun-1c-debris",
        "lat": -73.70577615604721,
        "lon": 103.5807113944593,
        "alt_km": 820.0490806654834,
        "timestamp": "2025-12-25T19:00:39.641472+00:00",
        "meta_object_name": "FENGYUN 1C DEB",
        "meta_object_id": "1999-025EYH",
        "meta_epoch": "2025-12-22T03:50:08.879136",
        "meta_mean_motion": 14.2651985,
        "meta_eccentricity": 0.00549434,
        "meta_inclination": 98.7534,
        "meta_ra_of_asc_node": 68.1407,
        "meta_arg_of_pericenter": 190.1772,
        "meta_mean_anomaly": 169.8301,
        "meta_ephemeris_type": 0,
        "meta_classification_type": "U",
        "meta_norad_cat_id": 41830,
        "meta_element_set_no": 999,
        "meta_rev_at_epoch": 47408,
        "meta_bstar": 0.00166186,
        "meta_mean_motion_dot": 4.027e-05,
        "meta_mean_motion_ddot": 0,
        "tle_line1": "1 41830U 99025EYH 25356.15982499  .00004027  00000+0  16619-2 0  9996",
        "tle_line2": "2 41830  98.7534  68.1407 0054943 190.1772 169.8301 14.26519850474084"
      },
      "geometry": {
        "type": "Point",
        "coordinates": [
          103.5807113944593,
          -73.70577615604721
        ]
      }
    },
    {
      "type": "Feature",
      "properties": {
        "norad_id": 41831,
        "name": "FENGYUN 1C DEB",
        "group": "fengyun-1c-debris",
        "lat": 20.135342662452125,
        "lon": 63.34585631747131,
        "alt_km": 848.7784317776777,
        "timestamp": "2025-12-25T19:00:39.641482+00:00",
        "meta_object_name": "FENGYUN 1C DEB",
        "meta_object_id": "1999-025EYJ",
        "meta_epoch": "2025-12-25T03:44:39.439392",
        "meta_mean_motion": 14.2465038,
        "meta_eccentricity": 0.00567669,
        "meta_inclination": 98.7329,
        "meta_ra_of_asc_node": 65.9441,
        "meta_arg_of_pericenter": 185.9976,
        "meta_mean_anomaly": 174.053,
        "meta_ephemeris_type": 0,
        "meta_classification_type": "U",
        "meta_norad_cat_id": 41831,
        "meta_element_set_no": 999,
        "meta_rev_at_epoch": 47436,
        "meta_bstar": 0.0015637523,
        "meta_mean_motion_dot": 3.654e-05,
        "meta_mean_motion_ddot": 0,
        "tle_line1": "1 41831U 99025EYJ 25359.15601203  .00003654  00000+0  15638-2 0  9996",
        "tle_line2": "2 41831  98.7329  65.9441 0056766 185.9976 174.0530 14.24650380474368"
      },
      "geometry": {
        "type": "Point",
        "coordinates": [
          63.34585631747131,
          20.135342662452125
        ]
      }
    }
  ]
}